IRIDIUM 112             
1 41925U 17003J   25063.10303431  .00000654  00000+0  22653-3 0  9998
2 41925  86.3924 284.7280 0002109  91.5336 268.6101 14.34215497425921
IRIDIUM 111             
1 41926U 17003K   25062.67174022  .00000022  00000+0  89706-6 0  9996
2 41926  86.3926 284.9687 0002150  84.2213 275.9228 14.34216704425817
IRIDIUM 113             
1 42803U 17039A   25063.14008526  .00000082  00000+0  22105-4 0  9992
2 42803  86.4038 158.6388 0002333 106.2155 253.9297 14.34216779403815
IRIDIUM 123             
1 42804U 17039B   25062.90248881  .00000074  00000+0  19438-4 0  9992
2 42804  86.4034 190.1527 0002167  89.6066 270.5378 14.34216883402548
IRIDIUM 120             
1 42805U 17039C   25062.78489274  .00000655  00000+0  22687-3 0  9996
2 42805  86.4029 158.6307 0001902  88.5901 271.5512 14.34213445403756
IRIDIUM 115             
1 42806U 17039D   25063.19413073  .00000777  00000+0  22480-3 0  9993
2 42806  86.4567 158.5235 0002659  84.4909 275.6596 14.43291095406472
IRIDIUM 118             
1 42807U 17039E   25062.86443258 -.00000190  00000+0 -74965-4 0  9992
2 42807  86.4037 190.1690 0001931  99.9389 260.2024 14.34216659402539
IRIDIUM 117             
1 42808U 17039F   25062.88345624  .00000083  00000+0  22563-4 0  9999
2 42808  86.4032 190.1230 0002296  90.2704 269.8754 14.34214334402572
